{
  "type": "FeatureCollection",
  "features": [
    {
      "type": "Feature",
      "properties": {
        "norad_id": 44794,
        "name": "BEIDOU-3 M21 (C43)",
        "group": "beidou",
        "lat": -41.997781747883266,
        "lon": -94.80564639031093,
        "alt_km": 21528.869887840938,
        "timestamp": "2025-12-25T03:55:56.623049+00:00",
        "meta_object_name": "BEIDOU-3 M21 (C43)",
        "meta_object_id": "2019-078B",
        "meta_epoch": "2025-12-24T04:09:05.808096",
        "meta_mean_motion": 1.86227905,
        "meta_eccentricity": 0.00042864,
        "meta_inclination": 54.0711,
        "meta_ra_of_asc_node": 305.95,
        "meta_arg_of_pericenter": 12.8306,
        "meta_mean_anomaly": 347.188,
        "meta_ephemeris_type": 0,
        "meta_classification_type": "U",
        "meta_norad_cat_id": 44794,
        "meta_element_set_no": 999,
        "meta_rev_at_epoch": 4139,
        "meta_bstar": 0,
        "meta_mean_motion_dot": -5.2e-07,
        "meta_mean_motion_ddot": 0,
        "tle_line1": "1 44794U 19078B   25358.17298389 -.00000052  00000+0  00000+0 0  9999",
        "tle_line2": "2 44794  54.0711 305.9500 0004286  12.8306 347.1880  1.86227905 41398"
      },
      "geometry": {
        "type": "Point",
        "coordinates": [
          -94.80564639031093,
          -41.997781747883266
        ]
      }
    },
    {
      "type": "Feature",
      "properties": {
        "norad_id": 44864,
        "name": "BEIDOU-3 M19 (C41)",
        "group": "beidou",
        "lat": 32.321246296979815,
        "lon": -136.27105863179537,
        "alt_km": 21565.99081799027,
        "timestamp": "2025-12-25T03:55:56.623060+00:00",
        "meta_object_name": "BEIDOU-3 M19 (C41)",
        "meta_object_id": "2019-090A",
        "meta_epoch": "2025-12-23T08:14:02.545728",
        "meta_mean_motion": 1.86231621,
        "meta_eccentricity": 0.00183506,
        "meta_inclination": 56.4016,
        "meta_ra_of_asc_node": 68.6102,
        "meta_arg_of_pericenter": 285.1686,
        "meta_mean_anomaly": 74.3057,
        "meta_ephemeris_type": 0,
        "meta_classification_type": "U",
        "meta_norad_cat_id": 44864,
        "meta_element_set_no": 999,
        "meta_rev_at_epoch": 4095,
        "meta_bstar": 0,
        "meta_mean_motion_dot": -2.5e-07,
        "meta_mean_motion_ddot": 0,
        "tle_line1": "1 44864U 19090A   25357.34308502 -.00000025  00000+0  00000+0 0  9998",
        "tle_line2": "2 44864  56.4016  68.6102 0018350 285.1686  74.3057  1.86231621 40950"
      },
      "geometry": {
        "type": "Point",
        "coordinates": [
          -136.27105863179537,
          32.321246296979815
        ]
      }
    },
    {
      "type": "Feature",
      "properties": {
        "norad_id": 44865,
        "name": "BEIDOU-3 M20 (C42)",
        "group": "beidou",
        "lat": -39.408497189300476,
        "lon": -78.34035144637255,
        "alt_km": 21516.26326947125,
        "timestamp": "2025-12-25T03:55:56.623071+00:00",
        "meta_object_name": "BEIDOU-3 M20 (C42)",
        "meta_object_id": "2019-090B",
        "meta_epoch": "2025-12-24T06:49:50.341152",
        "meta_mean_motion": 1.862316,
        "meta_eccentricity": 0.00155247,
        "meta_inclination": 56.404,
        "meta_ra_of_asc_node": 68.6133,
        "meta_arg_of_pericenter": 297.3471,
        "meta_mean_anomaly": 62.9851,
        "meta_ephemeris_type": 0,
        "meta_classification_type": "U",
        "meta_norad_cat_id": 44865,
        "meta_element_set_no": 999,
        "meta_rev_at_epoch": 4096,
        "meta_bstar": 0,
        "meta_mean_motion_dot": -2.4e-07,
        "meta_mean_motion_ddot": 0,
        "tle_line1": "1 44865U 19090B   25358.28461043 -.00000024  00000+0  00000+0 0  9992",
        "tle_line2": "2 44865  56.4040  68.6133 0015524 297.3471  62.9851  1.86231600 40962"
      },
      "geometry": {
        "type": "Point",
        "coordinates": [
          -78.34035144637255,
          -39.408497189300476
        ]
      }
    },
    {
      "type": "Feature",
      "properties": {
        "norad_id": 45344,
        "name": "BEIDOU-3 G2 (C60)",
        "group": "beidou",
        "lat": -0.3978197157453615,
        "lon": -127.07195308620591,
        "alt_km": 35780.02779864055,
        "timestamp": "2025-12-25T03:55:56.623083+00:00",
        "meta_object_name": "BEIDOU-3 G2 (C60)",
        "meta_object_id": "2020-017A",
        "meta_epoch": "2025-12-24T20:19:44.530752",
        "meta_mean_motion": 1.00272356,
        "meta_eccentricity": 0.0002113,
        "meta_inclination": 2.5183,
        "meta_ra_of_asc_node": 44.1145,
        "meta_arg_of_pericenter": 237.107,
        "meta_mean_anomaly": 197.3749,
        "meta_ephemeris_type": 0,
        "meta_classification_type": "U",
        "meta_norad_cat_id": 45344,
        "meta_element_set_no": 999,
        "meta_rev_at_epoch": 2151,
        "meta_bstar": 0,
        "meta_mean_motion_dot": -1.2e-06,
        "meta_mean_motion_ddot": 0,
        "tle_line1": "1 45344U 20017A   25358.84704318 -.00000120  00000+0  00000+0 0  9990",
        "tle_line2": "2 45344   2.5183  44.1145 0002113 237.1070 197.3749  1.00272356 21512"
      },
      "geometry": {
        "type": "Point",
        "coordinates": [
          -127.07195308620591,
          -0.3978197157453615
        ]
      }
    },
    {
      "type": "Feature",
      "properties": {
        "norad_id": 45807,
        "name": "BEIDOU-3 G3 (C61)",
        "group": "beidou",
        "lat": -0.5989049736572227,
        "lon": -96.63872692318698,
        "alt_km": 35797.902418897,
        "timestamp": "2025-12-25T03:55:56.623095+00:00",
        "meta_object_name": "BEIDOU-3 G3 (C61)",
        "meta_object_id": "2020-040A",
        "meta_epoch": "2025-12-24T06:46:41.471616",
        "meta_mean_motion": 1.00268173,
        "meta_eccentricity": 0.00065833,
        "meta_inclination": 2.0173,
        "meta_ra_of_asc_node": 66.6796,
        "meta_arg_of_pericenter": 309.1585,
        "meta_mean_anomaly": 289.4373,
        "meta_ephemeris_type": 0,
        "meta_classification_type": "U",
        "meta_norad_cat_id": 45807,
        "meta_element_set_no": 999,
        "meta_rev_at_epoch": 2031,
        "meta_bstar": 0,
        "meta_mean_motion_dot": -3.33e-06,
        "meta_mean_motion_ddot": 0,
        "tle_line1": "1 45807U 20040A   25358.28242444 -.00000333  00000+0  00000+0 0  9991",
        "tle_line2": "2 45807   2.0173  66.6796 0006583 309.1585 289.4373  1.00268173 20312"
      },
      "geometry": {
        "type": "Point",
        "coordinates": [
          -96.63872692318698,
          -0.5989049736572227
        ]
      }
    },
    {
      "type": "Feature",
      "properties": {
        "norad_id": 56564,
        "name": "BEIDOU-3 G4 (C62)",
        "group": "beidou",
        "lat": 0.11972016830492851,
        "lon": -47.022524870194694,
        "alt_km": 35794.77499293012,
        "timestamp": "2025-12-25T03:55:56.623107+00:00",
        "meta_object_name": "BEIDOU-3 G4 (C62)",
        "meta_object_id": "2023-066A",
        "meta_epoch": "2025-12-24T18:59:44.691936",
        "meta_mean_motion": 1.0027093,
        "meta_eccentricity": 0.0002581,
        "meta_inclination": 0.79,
        "meta_ra_of_asc_node": 302.9839,
        "meta_arg_of_pericenter": 228.7781,
        "meta_mean_anomaly": 6.7907,
        "meta_ephemeris_type": 0,
        "meta_classification_type": "U",
        "meta_norad_cat_id": 56564,
        "meta_element_set_no": 999,
        "meta_rev_at_epoch": 964,
        "meta_bstar": 0,
        "meta_mean_motion_dot": -9e-07,
        "meta_mean_motion_ddot": 0,
        "tle_line1": "1 56564U 23066A   25358.79148949 -.00000090  00000+0  00000+0 0  9995",
        "tle_line2": "2 56564   0.7900 302.9839 0002581 228.7781   6.7907  1.00270930  9649"
      },
      "geometry": {
        "type": "Point",
        "coordinates": [
          -47.022524870194694,
          0.11972016830492851
        ]
      }
    },
    {
      "type": "Feature",
      "properties": {
        "norad_id": 58654,
        "name": "BEIDOU-3 M28 (C50)",
        "group": "beidou",
        "lat": -51.66700760139507,
        "lon": -51.84622017543147,
        "alt_km": 21526.553311208583,
        "timestamp": "2025-12-25T03:55:56.623118+00:00",
        "meta_object_name": "BEIDOU-3 M28 (C50)",
        "meta_object_id": "2023-207A",
        "meta_epoch": "2025-12-23T04:15:12.326400",
        "meta_mean_motion": 1.86229739,
        "meta_eccentricity": 0.00028337,
        "meta_inclination": 55.5933,
        "meta_ra_of_asc_node": 68.248,
        "meta_arg_of_pericenter": 274.486,
        "meta_mean_anomaly": 85.5342,
        "meta_ephemeris_type": 0,
        "meta_classification_type": "U",
        "meta_norad_cat_id": 58654,
        "meta_element_set_no": 999,
        "meta_rev_at_epoch": 1356,
        "meta_bstar": 0,
        "meta_mean_motion_dot": -2.8e-07,
        "meta_mean_motion_ddot": 0,
        "tle_line1": "1 58654U 23207A   25357.17722600 -.00000028  00000+0  00000+0 0  9998",
        "tle_line2": "2 58654  55.5933  68.2480 0002833 274.4860  85.5342  1.86229739 13564"
      },
      "geometry": {
        "type": "Point",
        "coordinates": [
          -51.84622017543147,
          -51.66700760139507
        ]
      }
    }
  ]
}